{"type": "FeatureCollection", "features": [ {"type": "Feature", "properties": {"norad_id": 38552, "name": "METEOSAT-10 (MSG-3)", "group": "weather", "lat": -0.46020232899037855, "lon": -112.34646077547855, "alt_km": 35783.02014110561, "timestamp": "2025-12-06T11:28:10.672072+00:00", "meta": {"OBJECT_NAME": "METEOSAT-10 (MSG-3)", "OBJECT_ID": "2012-035B", "EPOCH": "2025-12-05T22:15:30.061728", "MEAN_MOTION": 1.00272921, "ECCENTRICITY": 8.756e-05, "INCLINATION": 4.2122, "RA_OF_ASC_NODE": 61.734, "ARG_OF_PERICENTER": 227.3166, "MEAN_ANOMALY": 119.9168, "EPHEMERIS_TYPE": 0, "CLASSIFICATION_TYPE": "U", "NORAD_CAT_ID": 38552, "ELEMENT_SET_NO": 999, "REV_AT_EPOCH": 4891, "BSTAR": 0, "MEAN_MOTION_DOT": 1e-08, "MEAN_MOTION_DDOT": 0}, "tle": {"line1": "1 38552U 12035B   25339.92743127  .00000001  00000+0  00000+0 0  9990", "line2": "2 38552   4.2122  61.7340 0000875 227.3166 119.9168  1.00272921 48915"}}, "geometry": {"type": "Point", "coordinates": [-112.34646077547855, -0.46020232899037855]}}, {"type": "Feature", "properties": {"norad_id": 38771, "name": "METOP-B", "group": "weather", "lat": 73.8480767411406, "lon": -117.62002408667877, "alt_km": 812.4157548400726, "timestamp": "2025-12-06T11:28:10.672083+00:00", "meta": {"OBJECT_NAME": "METOP-B", "OBJECT_ID": "2012-049A", "EPOCH": "2025-12-05T23:09:27.925920", "MEAN_MOTION": 14.21404492, "ECCENTRICITY": 0.00026138, "INCLINATION": 98.6808, "RA_OF_ASC_NODE": 30.0383, "ARG_OF_PERICENTER": 159.2322, "MEAN_ANOMALY": 200.8962, "EPHEMERIS_TYPE": 0, "CLASSIFICATION_TYPE": "U", "NORAD_CAT_ID": 38771, "ELEMENT_SET_NO": 999, "REV_AT_EPOCH": 68581, "BSTAR": 0.00014991403, "MEAN_MOTION_DOT": 2.84e-06, "MEAN_MOTION_DDOT": 0}, "tle": {"line1": "1 38771U 12049A   25339.96490655  .00000284  00000+0  14991-3 0  9998", "line2": "2 38771  98.6808  30.0383 0002613 159.2322 200.8962 14.21404492685816"}}, "geometry": {"type": "Point", "coordinates": [-117.62002408667877, 73.8480767411406]}}, {"type": "Feature", "properties": {"norad_id": 39216, "name": "INSAT-3D", "group": "weather", "lat": -1.306101401168075, "lon": 17.11205392851846, "alt_km": 35791.23475747121, "timestamp": "2025-12-06T11:28:10.672095+00:00", "meta": {"OBJECT_NAME": "INSAT-3D", "OBJECT_ID": "2013-038B", "EPOCH": "2025-12-05T21:09:37.140768", "MEAN_MOTION": 1.00272643, "ECCENTRICITY": 0.00017746, "INCLINATION": 1.4261, "RA_OF_ASC_NODE": 85.0666, "ARG_OF_PERICENTER": 158.7919, "MEAN_ANOMALY": 278.0131, "EPHEMERIS_TYPE": 0, "CLASSIFICATION_TYPE": "U", "NORAD_CAT_ID": 39216, "ELEMENT_SET_NO": 999, "REV_AT_EPOCH": 4514, "BSTAR": 0, "MEAN_MOTION_DOT": -3.3e-06, "MEAN_MOTION_DDOT": 0}, "tle": {"line1": "1 39216U 13038B   25339.88167987 -.00000330  00000+0  00000+0 0  9997", "line2": "2 39216   1.4261  85.0666 0001774 158.7919 278.0131  1.00272643 45148"}}, "geometry": {"type": "Point", "coordinates": [17.11205392851846, -1.306101401168075]}}, {"type": "Feature", "properties": {"norad_id": 39260, "name": "FENGYUN 3C", "group": "weather", "lat": 59.63399974959013, "lon": 153.20703373616146, "alt_km": 835.1203142998729, "timestamp": "2025-12-06T11:28:10.672106+00:00", "meta": {"OBJECT_NAME": "FENGYUN 3C", "OBJECT_ID": "2013-052A", "EPOCH": "2025-12-05T23:02:00.931200", "MEAN_MOTION": 14.15693196, "ECCENTRICITY": 0.00139459, "INCLINATION": 98.4756, "RA_OF_ASC_NODE": 317.9704, "ARG_OF_PERICENTER": 216.3294, "MEAN_ANOMALY": 143.6935, "EPHEMERIS_TYPE": 0, "CLASSIFICATION_TYPE": "U", "NORAD_CAT_ID": 39260, "ELEMENT_SET_NO": 999, "REV_AT_EPOCH": 63122, "BSTAR": 0.00013798275, "MEAN_MOTION_DOT": 2.3e-06, "MEAN_MOTION_DDOT": 0}, "tle": {"line1": "1 39260U 13052A   25339.95973300  .00000230  00000+0  13798-3 0  9994", "line2": "2 39260  98.4756 317.9704 0013945 216.3294 143.6935 14.15693196631221"}}, "geometry": {"type": "Point", "coordinates": [153.20703373616146, 59.63399974959013]}}, {"type": "Feature", "properties": {"norad_id": 40069, "name": "METEOR-M 2", "group": "weather", "lat": -27.119797639559128, "lon": -37.3100915097949, "alt_km": 827.1086338386212, "timestamp": "2025-12-06T11:28:10.672117+00:00", "meta": {"OBJECT_NAME": "METEOR-M 2", "OBJECT_ID": "2014-037A", "EPOCH": "2025-12-05T23:46:20.381952", "MEAN_MOTION": 14.21382459, "ECCENTRICITY": 0.00047783, "INCLINATION": 98.4895, "RA_OF_ASC_NODE": 317.8341, "ARG_OF_PERICENTER": 231.8244, "MEAN_ANOMALY": 128.2504, "EPHEMERIS_TYPE": 0, "CLASSIFICATION_TYPE": "U", "NORAD_CAT_ID": 40069, "ELEMENT_SET_NO": 999, "REV_AT_EPOCH": 59187, "BSTAR": 0.00014868296, "MEAN_MOTION_DOT": 2.83e-06, "MEAN_MOTION_DDOT": 0}, "tle": {"line1": "1 40069U 14037A   25339.99051368  .00000283  00000+0  14868-3 0  9999", "line2": "2 40069  98.4895 317.8341 0004778 231.8244 128.2504 14.21382459591872"}}, "geometry": {"type": "Point", "coordinates": [-37.3100915097949, -27.119797639559128]}}, {"type": "Feature", "properties": {"norad_id": 40267, "name": "HIMAWARI-8", "group": "weather", "lat": -0.018831673708330002, "lon": 28.236388559790715, "alt_km": 35787.71472781523, "timestamp": "2025-12-06T11:28:10.672129+00:00", "meta": {"OBJECT_NAME": "HIMAWARI-8", "OBJECT_ID": "2014-060A", "EPOCH": "2025-12-05T21:12:51.831072", "MEAN_MOTION": 1.00269784, "ECCENTRICITY": 0.00013575, "INCLINATION": 0.0523, "RA_OF_ASC_NODE": 138.7124, "ARG_OF_PERICENTER": 149.6855, "MEAN_ANOMALY": 245.4256, "EPHEMERIS_TYPE": 0, "CLASSIFICATION_TYPE": "U", "NORAD_CAT_ID": 40267, "ELEMENT_SET_NO": 999, "REV_AT_EPOCH": 4082, "BSTAR": 0, "MEAN_MOTION_DOT": -2.66e-06, "MEAN_MOTION_DDOT": 0}, "tle": {"line1": "1 40267U 14060A   25339.88393323 -.00000266  00000+0  00000+0 0  9994", "line2": "2 40267   0.0523 138.7124 0001357 149.6855 245.4256  1.00269784 40820"}}, "geometry": {"type": "Point", "coordinates": [28.236388559790715, -0.018831673708330002]}}, {"type": "Feature", "properties": {"norad_id": 40367, "name": "FENGYUN 2G", "group": "weather", "lat": -5.147146680835762, "lon": -12.728122051648947, "alt_km": 35785.297916990785, "timestamp": "2025-12-06T11:28:10.672141+00:00", "meta": {"OBJECT_NAME": "FENGYUN 2G", "OBJECT_ID": "2014-090A", "EPOCH": "2025-12-05T19:18:26.245152", "MEAN_MOTION": 1.002665, "ECCENTRICITY": 0.00031526, "INCLINATION": 5.1497, "RA_OF_ASC_NODE": 75.1781, "ARG_OF_PERICENTER": 195.2891, "MEAN_ANOMALY": 193.6781, "EPHEMERIS_TYPE": 0, "CLASSIFICATION_TYPE": "U", "NORAD_CAT_ID": 40367, "ELEMENT_SET_NO": 999, "REV_AT_EPOCH": 4006, "BSTAR": 0, "MEAN_MOTION_DOT": -2.95e-06, "MEAN_MOTION_DDOT": 0}, "tle": {"line1": "1 40367U 14090A   25339.80447043 -.00000295  00000+0  00000+0 0  9991", "line2": "2 40367   5.1497  75.1781 0003152 195.2891 193.6781  1.00266500 40068"}}, "geometry": {"type": "Point", "coordinates": [-12.728122051648947, -5.147146680835762]}}, {"type": "Feature", "properties": {"norad_id": 40732, "name": "METEOSAT-11 (MSG-4)", "group": "weather", "lat": -0.2602480523057585, "lon": -103.04085069596749, "alt_km": 35786.168349446816, "timestamp": "2025-12-06T11:28:10.672153+00:00", "meta": {"OBJECT_NAME": "METEOSAT-11 (MSG-4)", "OBJECT_ID": "2015-034A", "EPOCH": "2025-12-05T22:18:07.310592", "MEAN_MOTION": 1.00265352, "ECCENTRICITY": 9.975e-05, "INCLINATION": 2.7184, "RA_OF_ASC_NODE": 72.0214, "ARG_OF_PERICENTER": 118.7705, "MEAN_ANOMALY": 228.1275, "EPHEMERIS_TYPE": 0, "CLASSIFICATION_TYPE": "U", "NORAD_CAT_ID": 40732, "ELEMENT_SET_NO": 999, "REV_AT_EPOCH": 527, "BSTAR": 0, "MEAN_MOTION_DOT": 7e-07, "MEAN_MOTION_DDOT": 0}, "tle": {"line1": "1 40732U 15034A   25339.92925128  .00000070  00000+0  00000+0 0  9994", "line2": "2 40732   2.7184  72.0214 0000997 118.7705 228.1275  1.00265352  5275"}}, "geometry": {"type": "Point", "coordinates": [-103.04085069596749, -0.2602480523057585]}}, {"type": "Feature", "properties": {"norad_id": 41105, "name": "ELEKTRO-L 2", "group": "weather", "lat": 2.0850628691374933, "lon": -126.87815512519053, "alt_km": 35771.80162614249, "timestamp": "2025-12-06T11:28:10.672165+00:00", "meta": {"OBJECT_NAME": "ELEKTRO-L 2", "OBJECT_ID": "2015-074A", "EPOCH": "2025-12-05T02:13:38.625024", "MEAN_MOTION": 1.00271424, "ECCENTRICITY": 0.00041676, "INCLINATION": 6.2057, "RA_OF_ASC_NODE": 72.9172, "ARG_OF_PERICENTER": 196.9759, "MEAN_ANOMALY": 183.1549, "EPHEMERIS_TYPE": 0, "CLASSIFICATION_TYPE": "U", "NORAD_CAT_ID": 41105, "ELEMENT_SET_NO": 999, "REV_AT_EPOCH": 3656, "BSTAR": 0, "MEAN_MOTION_DOT": -1.09e-06, "MEAN_MOTION_DDOT": 0}, "tle": {"line1": "1 41105U 15074A   25339.09280816 -.00000109  00000+0  00000+0 0  9993", "line2": "2 41105   6.2057  72.9172 0004167 196.9759 183.1549  1.00271424 36567"}}, "geometry": {"type": "Point", "coordinates": [-126.87815512519053, 2.0850628691374933]}}, {"type": "Feature", "properties": {"norad_id": 41752, "name": "INSAT-3DR", "group": "weather", "lat": -0.06423007920539558, "lon": -38.30163489334998, "alt_km": 35748.90201195686, "timestamp": "2025-12-06T11:28:10.672177+00:00", "meta": {"OBJECT_NAME": "INSAT-3DR", "OBJECT_ID": "2016-054A", "EPOCH": "2025-12-05T21:18:38.615616", "MEAN_MOTION": 1.00269731, "ECCENTRICITY": 0.00145681, "INCLINATION": 0.0749, "RA_OF_ASC_NODE": 87.8826, "ARG_OF_PERICENTER": 181.607, "MEAN_ANOMALY": 199.1272, "EPHEMERIS_TYPE": 0, "CLASSIFICATION_TYPE": "U", "NORAD_CAT_ID": 41752, "ELEMENT_SET_NO": 999, "REV_AT_EPOCH": 3388, "BSTAR": 0, "MEAN_MOTION_DOT": -6.8e-07, "MEAN_MOTION_DDOT": 0}, "tle": {"line1": "1 41752U 16054A   25339.88794694 -.00000068  00000+0  00000+0 0  9995", "line2": "2 41752   0.0749  87.8826 0014568 181.6070 199.1272  1.00269731 33889"}}, "geometry": {"type": "Point", "coordinates": [-38.30163489334998, -0.06423007920539558]}}]}